FALCONSAT-6             
1 43815U 18099BK  26068.72544389  .00005029  00000+0  19477-3 0  9998
2 43815  97.3865 145.8165 0014370 297.0944 181.0714 15.26532865398556
STARLINK-31454          
1 59014U 24036S   26068.32684986  .00001284  00000+0  55488-4 0  9990
2 59014  53.1592  80.0967 0001314  85.1870 274.9281 15.30194323115263
